start=new Date('2023-02-14T00:00:00.000Z').valueOf();
sats=[{"OBJECT_TYPE":"PAYLOAD","LAUNCH_DATE":"2021-12-02","MEAN_MOTION_DDOT":"0.0000000000000","RCS_SIZE":"LARGE","MEAN_MOTION":"15.08861632","SITE":"AFETR","FILE":"3788925","RA_OF_ASC_NODE":"147.4557","BSTAR":"0.00255680000000","ECCENTRICITY":"0.00010690","ARG_OF_PERICENTER":"143.6902","PERIOD":"95.436","TLE_LINE2":"2 49731  53.2164 147.4557 0001069 143.6902 216.4163 15.08861632 67401","MEAN_MOTION_DOT":"0.00040663","ELEMENT_SET_NO":"999","OBJECT_NAME":"STARLINK-3228","DECAY_DATE":null,"TIME_SYSTEM":"UTC","COUNTRY_CODE":"US","CLASSIFICATION_TYPE":"U","PERIAPSIS":"538.940","MEAN_ELEMENT_THEORY":"SGP4","EPHEMERIS_TYPE":"0","MEAN_ANOMALY":"216.4163","TLE_LINE1":"1 49731U 21115H   23044.58771451  .00040663  00000-0  25568-2 0  9992","GP_ID":"225291812","CENTER_NAME":"EARTH","SEMIMAJOR_AXIS":"6917.814","REF_FRAME":"TEME","NORAD_CAT_ID":"49731","APOAPSIS":"540.419","REV_AT_EPOCH":"6740","EPOCH":"2023-02-13T14:06:18.533664","OBJECT_ID":"2021-115H","INCLINATION":"53.2164"},{"OBJECT_ID":"2021-115J","INCLINATION":"53.2152","REF_FRAME":"TEME","NORAD_CAT_ID":"49732","REV_AT_EPOCH":"6739","APOAPSIS":"540.597","EPOCH":"2023-02-13T12:52:07.319712","EPHEMERIS_TYPE":"0","MEAN_ANOMALY":"274.2882","TLE_LINE1":"1 49732U 21115J   23044.53619583  .00048409  00000-0  30376-2 0  9994","GP_ID":"225292216","CENTER_NAME":"EARTH","SEMIMAJOR_AXIS":"6917.832","DECAY_DATE":null,"TIME_SYSTEM":"UTC","COUNTRY_CODE":"US","CLASSIFICATION_TYPE":"U","PERIAPSIS":"538.797","MEAN_ELEMENT_THEORY":"SGP4","ARG_OF_PERICENTER":"85.8258","PERIOD":"95.437","TLE_LINE2":"2 49732  53.2152 147.6879 0001301  85.8258 274.2882 15.08855903 67390","MEAN_MOTION_DOT":"0.00048409","ELEMENT_SET_NO":"999","OBJECT_NAME":"STARLINK-3246","RA_OF_ASC_NODE":"147.6879","BSTAR":"0.00303760000000","ECCENTRICITY":"0.00013010","LAUNCH_DATE":"2021-12-02","OBJECT_TYPE":"PAYLOAD","RCS_SIZE":"LARGE","MEAN_MOTION":"15.08855903","MEAN_MOTION_DDOT":"0.0000000000000","SITE":"AFETR","FILE":"3788937"},{"OBJECT_NAME":"STARLINK-3252","ELEMENT_SET_NO":"999","MEAN_MOTION_DOT":"0.00001855","TLE_LINE2":"2 49733  53.2171 148.3132 0001540  78.3988 281.7177 15.08829254 66269","ARG_OF_PERICENTER":"78.3988","PERIOD":"95.438","CLASSIFICATION_TYPE":"U","MEAN_ELEMENT_THEORY":"SGP4","PERIAPSIS":"538.713","TIME_SYSTEM":"UTC","COUNTRY_CODE":"US","DECAY_DATE":null,"SITE":"AFETR","FILE":"3789366","RCS_SIZE":"LARGE","MEAN_MOTION":"15.08829254","MEAN_MOTION_DDOT":"0.0000000000000","LAUNCH_DATE":"2021-12-02","OBJECT_TYPE":"PAYLOAD","ECCENTRICITY":"0.00015400","BSTAR":"0.00013466000000","RA_OF_ASC_NODE":"148.3132","EPOCH":"2023-02-13T09:30:46.025856","APOAPSIS":"540.844","REV_AT_EPOCH":"6626","NORAD_CAT_ID":"49733","REF_FRAME":"TEME","INCLINATION":"53.2171","OBJECT_ID":"2021-115K","CENTER_NAME":"EARTH","SEMIMAJOR_AXIS":"6917.913","TLE_LINE1":"1 49733U 21115K   23044.39636604  .00001855  00000-0  13466-3 0  9998","GP_ID":"225324624","MEAN_ANOMALY":"281.7177","EPHEMERIS_TYPE":"0"},{"SITE":"AFETR","FILE":"3788955","LAUNCH_DATE":"2021-12-02","OBJECT_TYPE":"PAYLOAD","RCS_SIZE":"LARGE","MEAN_MOTION_DDOT":"0.0000000000000","MEAN_MOTION":"15.08851198","BSTAR":"0.00035973000000","ECCENTRICITY":"0.00012720","RA_OF_ASC_NODE":"137.6567","ELEMENT_SET_NO":"999","MEAN_MOTION_DOT":"0.00005444","OBJECT_NAME":"STARLINK-3238","PERIOD":"95.437","ARG_OF_PERICENTER":"124.1319","TLE_LINE2":"2 49734  53.2176 137.6567 0001272 124.1319 235.9794 15.08851198 67548","TIME_SYSTEM":"UTC","COUNTRY_CODE":"US","MEAN_ELEMENT_THEORY":"SGP4","PERIAPSIS":"538.831","CLASSIFICATION_TYPE":"U","DECAY_DATE":null,"GP_ID":"225292385","TLE_LINE1":"1 49734U 21115L   23044.54815764  .00005444  00000-0  35973-3 0  9997","CENTER_NAME":"EARTH","SEMIMAJOR_AXIS":"6917.846","EPHEMERIS_TYPE":"0","MEAN_ANOMALY":"235.9794","APOAPSIS":"540.591","REV_AT_EPOCH":"6754","EPOCH":"2023-02-13T13:09:20.820096","REF_FRAME":"TEME","NORAD_CAT_ID":"49734","INCLINATION":"53.2176","OBJECT_ID":"2021-115L"},{"OBJECT_NAME":"STARLINK-3113","MEAN_MOTION_DOT":"0.00050467","ELEMENT_SET_NO":"999","TLE_LINE2":"2 49735  53.2149 148.2973 0001094  60.6536 299.4566 15.09111069 67375","PERIOD":"95.420","ARG_OF_PERICENTER":"60.6536","MEAN_ELEMENT_THEORY":"SGP4","PERIAPSIS":"538.160","CLASSIFICATION_TYPE":"U","COUNTRY_CODE":"US","TIME_SYSTEM":"UTC","DECAY_DATE":null,"FILE":"3789749","SITE":"AFETR","MEAN_MOTION":"15.09111069","RCS_SIZE":"LARGE","MEAN_MOTION_DDOT":"0.0000000000000","LAUNCH_DATE":"2021-12-02","OBJECT_TYPE":"PAYLOAD","ECCENTRICITY":"0.00010940","BSTAR":"0.00314310000000","RA_OF_ASC_NODE":"148.2973","EPOCH":"2023-02-13T09:35:40.998912","APOAPSIS":"539.674","REV_AT_EPOCH":"6737","NORAD_CAT_ID":"49735","REF_FRAME":"TEME","INCLINATION":"53.2149","OBJECT_ID":"2021-115M","SEMIMAJOR_AXIS":"6917.052","CENTER_NAME":"EARTH","GP_ID":"225337703","TLE_LINE1":"1 49735U 21115M   23044.39978008  .00050467  00000-0  31431-2 0  9991","MEAN_ANOMALY":"299.4566","EPHEMERIS_TYPE":"0"},{"GP_ID":"225325101","TLE_LINE1":"1 49736U 21115N   23044.55551041  .00000966  00000-0  78720-4 0  9997","SEMIMAJOR_AXIS":"6917.854","CENTER_NAME":"EARTH","EPHEMERIS_TYPE":"0","MEAN_ANOMALY":"272.9922","INCLINATION":"53.2149","OBJECT_ID":"2021-115N","APOAPSIS":"540.141","REV_AT_EPOCH":"6643","EPOCH":"2023-02-13T13:19:56.099424","REF_FRAME":"TEME","NORAD_CAT_ID":"49736","BSTAR":"0.00007872000000","ECCENTRICITY":"0.00006100","RA_OF_ASC_NODE":"137.5985","FILE":"3789366","SITE":"AFETR","OBJECT_TYPE":"PAYLOAD","LAUNCH_DATE":"2021-12-02","MEAN_MOTION":"15.08848621","RCS_SIZE":"LARGE","MEAN_MOTION_DDOT":"0.0000000000000","COUNTRY_CODE":"US","TIME_SYSTEM":"UTC","MEAN_ELEMENT_THEORY":"SGP4","PERIAPSIS":"539.297","CLASSIFICATION_TYPE":"U","DECAY_DATE":null,"MEAN_MOTION_DOT":"0.00000966","ELEMENT_SET_NO":"999","OBJECT_NAME":"STARLINK-3148","PERIOD":"95.437","ARG_OF_PERICENTER":"87.1140","TLE_LINE2":"2 49736  53.2149 137.5985 0000610  87.1140 272.9922 15.08848621 66436"},{"TIME_SYSTEM":"UTC","COUNTRY_CODE":"US","CLASSIFICATION_TYPE":"U","PERIAPSIS":"539.124","MEAN_ELEMENT_THEORY":"SGP4","DECAY_DATE":null,"ELEMENT_SET_NO":"999","MEAN_MOTION_DOT":"0.00029695","OBJECT_NAME":"STARLINK-3225","ARG_OF_PERICENTER":"123.8211","PERIOD":"95.437","TLE_LINE2":"2 49737  53.2146 137.6147 0000879 123.8211 236.2865 15.08844206 66433","BSTAR":"0.00187580000000","ECCENTRICITY":"0.00008790","RA_OF_ASC_NODE":"137.6147","FILE":"3789366","SITE":"AFETR","OBJECT_TYPE":"PAYLOAD","LAUNCH_DATE":"2021-12-02","MEAN_MOTION":"15.08844206","RCS_SIZE":"LARGE","MEAN_MOTION_DDOT":"0.0000000000000","INCLINATION":"53.2146","OBJECT_ID":"2021-115P","REV_AT_EPOCH":"6643","APOAPSIS":"540.341","EPOCH":"2023-02-13T13:14:37.899456","REF_FRAME":"TEME","NORAD_CAT_ID":"49737","TLE_LINE1":"1 49737U 21115P   23044.55182754  .00029695  00000-0  18758-2 0  9992","GP_ID":"225325124","CENTER_NAME":"EARTH","SEMIMAJOR_AXIS":"6917.868","EPHEMERIS_TYPE":"0","MEAN_ANOMALY":"236.2865"},{"BSTAR":"0.00022389000000","ECCENTRICITY":"0.00007980","RA_OF_ASC_NODE":"137.5802","SITE":"AFETR","FILE":"3789366","LAUNCH_DATE":"2021-12-02","OBJECT_TYPE":"PAYLOAD","MEAN_MOTION":"15.08856604","RCS_SIZE":"LARGE","MEAN_MOTION_DDOT":"0.0000000000000","COUNTRY_CODE":"US","TIME_SYSTEM":"UTC","CLASSIFICATION_TYPE":"U","MEAN_ELEMENT_THEORY":"SGP4","PERIAPSIS":"539.143","DECAY_DATE":null,"ELEMENT_SET_NO":"999","MEAN_MOTION_DOT":"0.00003279","OBJECT_NAME":"STARLINK-3143","ARG_OF_PERICENTER":"97.7212","PERIOD":"95.437","TLE_LINE2":"2 49738  53.2154 137.5802 0000798  97.7212 262.3871 15.08856604 66432","TLE_LINE1":"1 49738U 21115Q   23044.55918782  .00003279  00000-0  22389-3 0  9997","GP_ID":"225325373","SEMIMAJOR_AXIS":"6917.830","CENTER_NAME":"EARTH","EPHEMERIS_TYPE":"0","MEAN_ANOMALY":"262.3871","OBJECT_ID":"2021-115Q","INCLINATION":"53.2154","REV_AT_EPOCH":"6643","APOAPSIS":"540.247","EPOCH":"2023-02-13T13:25:13.827648","REF_FRAME":"TEME","NORAD_CAT_ID":"49738"},{"FILE":"3789366","SITE":"AFETR","MEAN_MOTION_DDOT":"0.0000000000000","RCS_SIZE":"LARGE","MEAN_MOTION":"15.08841801","OBJECT_TYPE":"PAYLOAD","LAUNCH_DATE":"2021-12-02","ECCENTRICITY":"0.00008890","BSTAR":"0.00070051000000","RA_OF_ASC_NODE":"147.6675","OBJECT_NAME":"STARLINK-3155","MEAN_MOTION_DOT":"0.00010879","ELEMENT_SET_NO":"999","TLE_LINE2":"2 49739  53.2150 147.6675 0000889  88.6967 271.4127 15.08841801 66287","ARG_OF_PERICENTER":"88.6967","PERIOD":"95.437","CLASSIFICATION_TYPE":"U","PERIAPSIS":"539.125","MEAN_ELEMENT_THEORY":"SGP4","TIME_SYSTEM":"UTC","COUNTRY_CODE":"US","DECAY_DATE":null,"CENTER_NAME":"EARTH","SEMIMAJOR_AXIS":"6917.875","TLE_LINE1":"1 49739U 21115R   23044.53987738  .00010879  00000-0  70051-3 0  9996","GP_ID":"225325625","MEAN_ANOMALY":"271.4127","EPHEMERIS_TYPE":"0","EPOCH":"2023-02-13T12:57:25.405632","APOAPSIS":"540.355","REV_AT_EPOCH":"6628","NORAD_CAT_ID":"49739","REF_FRAME":"TEME","OBJECT_ID":"2021-115R","INCLINATION":"53.2150"},{"TLE_LINE2":"2 49740  53.2147 138.7191 0000973  82.1438 277.9664 15.08836474 67508","ARG_OF_PERICENTER":"82.1438","PERIOD":"95.438","OBJECT_NAME":"STARLINK-3226","MEAN_MOTION_DOT":"-0.00000356","ELEMENT_SET_NO":"999","DECAY_DATE":null,"CLASSIFICATION_TYPE":"U","PERIAPSIS":"539.083","MEAN_ELEMENT_THEORY":"SGP4","COUNTRY_CODE":"US","TIME_SYSTEM":"UTC","MEAN_MOTION_DDOT":"0.0000000000000","RCS_SIZE":"LARGE","MEAN_MOTION":"15.08836474","LAUNCH_DATE":"2021-12-02","OBJECT_TYPE":"PAYLOAD","FILE":"3789808","SITE":"AFETR","RA_OF_ASC_NODE":"138.7191","ECCENTRICITY":"0.00009730","BSTAR":"-0.00000432020000","NORAD_CAT_ID":"49740","REF_FRAME":"TEME","EPOCH":"2023-02-13T07:19:35.878368","APOAPSIS":"540.429","REV_AT_EPOCH":"6750","OBJECT_ID":"2021-115S","INCLINATION":"53.2147","MEAN_ANOMALY":"277.9664","EPHEMERIS_TYPE":"0","CENTER_NAME":"EARTH","SEMIMAJOR_AXIS":"6917.891","TLE_LINE1":"1 49740U 21115S   23044.30527637 -.00000356  00000-0 -43202-5 0  9992","GP_ID":"225338837"}];
